satname,norad_id,inclination_deg,eccentricity,mean_motion_rev_per_day,perigee_km,apogee_km,l1,l2
STARLINK-1280,45388,53.0516,0.0010231,15.46102671,421.17651539702274,435.1035194300548,1 45388U 20019AE  25344.85864712  .00030787  00000+0  62400-3 0  9998,2 45388  53.0516 192.3379 0010231 128.4496 231.7429 15.46102671316512
STARLINK-1283,45389,53.051,0.0010442,15.35774161,451.4830461027341,465.7609335771158,1 45389U 20019AF  25344.81909990  .00090568  00000+0  25415-2 0  9990,2 45389  53.0510 174.4673 0010442 140.9873 219.1884 15.35774161316777
STARLINK-1284,45390,53.0526,0.0001417,15.06396901,546.2397327066956,548.2023791797501,1 45390U 20019AG  25344.84800742  .00000576  00000+0  57566-4 0  9994,2 45390  53.0526 185.4471 0001417  91.9570 268.1581 15.06396901316616
STARLINK-1297,45395,53.052,0.0001318,15.06398425,546.3036235144864,548.1291466667963,1 45395U 20019AM  25344.81852497  .00001279  00000+0  10473-3 0  9996,2 45395  53.0520 185.5771 0001318  88.0208 272.0932 15.06398425315799
STARLINK-1307,45397,53.054,0.0001417,15.06399375,546.2321513118322,548.1947956360145,1 45397U 20019AP  25344.28037825  .00001656  00000+0  13003-3 0  9990,2 45397  53.0540 187.9918 0001417  90.8117 269.3034 15.06399375316352
STARLINK-1255,45399,53.0465,0.0007987,15.35531073,453.88242094717225,464.8046123244467,1 45399U 20019AR  25343.78643015  .00083577  00000+0  23683-2 0  9996,2 45399  53.0465 170.3863 0007987 140.2412 219.9176 15.35531073316545
STARLINK-1260,45404,53.0541,0.0001463,15.06397559,546.2058596732677,548.2322188503558,1 45404U 20019AW  25344.81207116  .00001014  00000+0  86978-4 0  9990,2 45404  53.0541 175.6028 0001463  90.2841 269.8316 15.06397559316469
STARLINK-1263,45405,53.0557,4.83e-05,15.06430282,546.7842596716937,547.4532393770978,1 45405U 20019AX  25344.79730603  .00011667  00000+0  80018-3 0  9993,2 45405  53.0557 175.6715 0000483 130.9022 229.2009 15.06430282316464
STARLINK-1265,45406,53.0526,0.0001463,15.0640127,546.1944876493517,548.2208434984987,1 45406U 20019AY  25344.80469369  .00000369  00000+0  43699-4 0  9996,2 45406  53.0526 175.6405 0001463  87.3202 272.7954 15.06401270316468
STARLINK-1278,45408,53.053,0.0009443,15.3889353,442.9328069314324,455.8272555966778,1 45408U 20019BA  25344.30503838  .00102405  00000+0  25934-2 0  9997,2 45408  53.0530 197.3864 0009443 124.8597 235.3296 15.38893530316121
STARLINK-1296,45412,53.053,0.0001366,15.06390981,546.2931936232953,548.1852064011391,1 45412U 20019BE  25344.80839102  .00000280  00000+0  37673-4 0  9996,2 45412  53.0530 175.6214 0001366  91.5360 268.5786 15.06390981316464
STARLINK-1298,45413,53.0443,0.0006698,15.60492971,381.70132249807193,390.76287134030554,1 45413U 20019BF  25344.91670139  .00193762  00000+0  22592-2 0  9992,2 45413  53.0443 136.9480 0006698  89.5693 326.9143 15.60492971  5960
STARLINK-1309,45414,53.0531,0.0001635,15.06394007,546.0976281886733,548.3622231733707,1 45414U 20019BG  25344.82313043 -.00000293  00000+0 -76828-6 0  9994,2 45414  53.0531 175.5566 0001635  93.2242 266.8934 15.06394007316451
STARLINK-1316,45415,53.0539,0.0001351,15.06393814,546.294900050636,548.1661343537853,1 45415U 20019BH  25343.98642554  .00000537  00000+0  54926-4 0  9995,2 45415  53.0539 179.3111 0001351  88.3058 271.8085 15.06393814316361
STARLINK-1318,45416,53.0455,0.0001579,15.67412895,365.24326446142095,367.3731602594844,1 45416U 20019BJ  25344.91670139  .00114137  00000+0  10261-2 0  9994,2 45416  53.0455 126.3793 0001579 174.5919 280.6020 15.67412895  5981
STARLINK-1286,45417,53.0511,0.0005603,15.40697609,440.2267348175874,447.8716766797497,1 45417U 20019BK  25344.22713891  .00217386  00000+0  51049-2 0  9991,2 45417  53.0511 197.7212 0005603 126.1129 234.0394 15.40697609316386
STARLINK-1308,45419,53.0532,0.0001422,15.0640158,546.2219315937327,548.1914993464125,1 45419U 20019BM  25344.61765888  .00004083  00000+0  29285-3 0  9995,2 45419  53.0532 206.4763 0001422  84.5011 275.6140 15.06401580316048
STARLINK-1329,45531,53.0548,0.000121,15.19399674,506.82058717280324,508.48694853862526,1 45531U 20025A   25344.91670139  .01105329  00000+0  47624-1 0  9995,2 45531  53.0548 144.8279 0001210  89.1837  64.9130 15.19399674  5811
STARLINK-1338,45532,53.0546,0.0001216,15.06416433,546.3190773575634,548.0033098782515,1 45532U 20025B   25344.73007192  .00007559  00000+0  52559-3 0  9999,2 45532  53.0546 145.9736 0001216  97.6288 262.4839 15.06416433311685
STARLINK-1350,45535,53.0739,0.0001634,15.33580778,464.02103314911983,466.25741581928105,1 45535U 20025E   25344.51637573  .00018922  00000+0  58460-3 0  9993,2 45535  53.0739  91.1293 0001634  99.2707 260.8478 15.33580778312462
STARLINK-1362,45538,53.0544,0.000131,15.06401527,546.2996578591537,548.1140979551665,1 45538U 20025H   25344.49686582 -.00001690  00000+0 -94611-4 0  9992,2 45538  53.0544 146.7374 0001310  90.7374 269.3765 15.06401527311650
STARLINK-1368,45540,53.055,0.0001324,15.06395633,546.3080242755013,548.1418601177947,1 45540U 20025K   25344.83326456  .00001161  00000+0  96859-4 0  9991,2 45540  53.0550 145.5100 0001324  86.5039 273.6101 15.06395633311696
STARLINK-1371,45542,53.0549,0.0001557,15.06401952,546.1272995068948,548.2838511848586,1 45542U 20025M   25344.73742738  .00001847  00000+0  14286-3 0  9991,2 45542  53.0549 145.9377 0001557  91.0640 269.0528 15.06401952311686
STARLINK-1372,45543,53.0548,0.0001305,15.06389289,546.3406235342773,548.1481480759721,1 45543U 20025N   25344.17719051  .00005170  00000+0  36581-3 0  9997,2 45543  53.0548 148.4557 0001305 101.6605 258.4531 15.06389289310698
STARLINK-1373,45544,53.0539,0.0001364,15.06398543,546.2714052846331,548.1606415894266,1 45544U 20025P   25344.72637264  .00000846  00000+0  75702-4 0  9998,2 45544  53.0539 145.9878 0001364  86.1908 273.9236 15.06398543311682
STARLINK-1294,45551,53.0455,0.0001567,15.6766917,364.516420019625,366.62989878358167,1 45551U 20025W   25344.63832096  .00130186  00000+0  11553-2 0  9999,2 45551  53.0455  63.1517 0001567 145.8492 214.2625 15.67669170312847
STARLINK-1325,45554,53.0506,0.000895,15.77469962,331.6011950072625,343.622385341675,1 45554U 20025Z   25344.91670139  .00104569  00000+0  61309-3 0  9992,2 45554  53.0506  53.1039 0008950   9.8052  29.5833 15.77469962  6003
STARLINK-1327,45555,53.054,0.000134,15.06398346,546.2886298286494,548.1446246007436,1 45555U 20025AA  25344.69872606  .00000646  00000+0  62263-4 0  9993,2 45555  53.0540 126.1134 0001340  91.7730 268.3413 15.06398346311957
STARLINK-1356,45564,53.055,0.0001321,15.06392009,546.3212075308156,548.1508910904431,1 45564U 20025AK  25343.70722123  .00000980  00000+0  84680-4 0  9990,2 45564  53.0550 130.5633 0001321  89.9731 270.1410 15.06392009311802
STARLINK-1357,45565,53.06,0.0005694,15.38819653,445.7108378332241,453.48626307808354,1 45565U 20025AL  25344.61487715  .00122362  00000+0  30990-2 0  9999,2 45565  53.0600 103.3264 0005694 146.4301 213.7064 15.38819653312270
STARLINK-1361,45567,53.0552,0.0001335,15.06401289,546.2830738366638,548.1321408468239,1 45567U 20025AN  25344.78718977  .00001022  00000+0  87515-4 0  9992,2 45567  53.0552 125.7133 0001335  84.7166 275.3975 15.06401289311970
STARLINK-1363,45568,53.0522,0.0005489,15.4887245,416.2918473250629,423.7548677655768,1 45568U 20025AP  25344.65449168  .00118374  00000+0  21357-2 0  9991,2 45568  53.0522 112.9997 0005489 224.3588 135.6980 15.48872450312139
STARLINK-1366,45569,53.0506,0.0004687,15.460444,425.1208549196308,431.5012193096227,1 45569U 20025AQ  25344.73485751  .00158459  00000+0  31346-2 0  9996,2 45569  53.0506 112.6694 0004687 244.3687 115.6835 15.46044400312146
STARLINK-1376,45570,53.0558,0.0001332,15.06396226,546.3006667602558,548.1455826974843,1 45570U 20025AR  25343.78830037  .00000359  00000+0  42966-4 0  9990,2 45570  53.0558 130.2032 0001332  93.5694 266.5447 15.06396226311813
STARLINK-1320,45572,53.0547,0.0004445,15.48807679,417.1910220083355,423.23475505924216,1 45572U 20025AT  25344.91670139  .00081473  00000+0  14830-2 0  9996,2 45572  53.0547  57.3400 0004445 115.1585  95.1909 15.48807679  5947
STARLINK-1321,45573,53.0537,0.0001235,15.06401956,546.3502832799395,548.0608428930218,1 45573U 20025AU  25344.63698441  .00001107  00000+0  93178-4 0  9992,2 45573  53.0537 116.3924 0001235  91.8111 268.3019 15.06401956311783
STARLINK-1328,45576,53.0446,0.0002557,15.86162603,311.3421917883079,314.7640664203327,1 45576U 20025AX  25344.91670139  .00299815  00000+0  11452-2 0  9998,2 45576  53.0446  71.1554 0002557 196.2187 226.3419 15.86162603  6020
STARLINK-1331,45578,53.0577,0.0001273,15.06414008,546.2870343623263,548.0502171746466,1 45578U 20025AZ  25344.74754144  .00002166  00000+0  16417-3 0  9998,2 45578  53.0577 115.8917 0001273 203.0791 157.0141 15.06414008312111
STARLINK-1333,45580,53.0557,0.0001411,15.0640422,546.2214594196776,548.1757891328489,1 45580U 20025BB  25344.68767093  .00002392  00000+0  17940-3 0  9994,2 45580  53.0557 126.1610 0001411  92.0770 268.0380 15.06404220311958
STARLINK-1335,45581,53.0531,9.79e-05,15.0639666,546.5438019501544,547.8997872021328,1 45581U 20025BC  25344.36055919  .00009542  00000+0  65869-3 0  9994,2 45581  53.0531 117.6320 0000979  79.1727 280.9373 15.06396660312044
STARLINK-1337,45582,53.0528,0.0001474,15.063995,546.1922937633672,548.233886970007,1 45582U 20025BD  25344.64804236  .00000445  00000+0  48803-4 0  9993,2 45582  53.0528 116.3425 0001474  91.3556 268.7602 15.06399500312089
STARLINK-1347,45586,53.0516,0.000454,15.37751345,449.65920405077395,455.86165891856126,1 45586U 20025BH  25344.91670139  .00078073  00000+0  20632-2 0  9990,2 45586  53.0516  92.6217 0004540 149.0729 320.5086 15.37751345  5901
STARLINK-1360,45588,53.04,0.0004401,15.88820979,302.64584980546715,308.5288639844075,1 45588U 20025BK  25344.91670139  .00344620  00000+0  11483-2 0  9990,2 45588  53.0400 357.5093 0004401  40.0544  23.2297 15.88820979  6033
